{
    "links": {
        "self": "http://www.neowsapp.com/rest/v1/neo/54013538?api_key=iIulBulltgU6a56xZRHN4H3l9WmuAYTsLGpBGhQ2"
    },
    "id": "54013538",
    "neo_reference_id": "54013538",
    "name": "(2020 ED)",
    "designation": "2020 ED",
    "nasa_jpl_url": "http://ssd.jpl.nasa.gov/sbdb.cgi?sstr=54013538",
    "absolute_magnitude_h": 26.886,
    "estimated_diameter": {
        "kilometers": {
            "estimated_diameter_min": 0.0111520569,
            "estimated_diameter_max": 0.0249367573
        },
        "meters": {
            "estimated_diameter_min": 11.1520568998,
            "estimated_diameter_max": 24.9367573168
        },
        "miles": {
            "estimated_diameter_min": 0.0069295647,
            "estimated_diameter_max": 0.0154949778
        },
        "feet": {
            "estimated_diameter_min": 36.588114359,
            "estimated_diameter_max": 81.8135108753
        }
    },
    "is_potentially_hazardous_asteroid": false,
    "close_approach_data": [
        {
            "close_approach_date": "2020-03-11",
            "close_approach_date_full": "2020-Mar-11 01:04",
            "epoch_date_close_approach": 1583888640000,
            "relative_velocity": {
                "kilometers_per_second": "8.534340559",
                "kilometers_per_hour": "30723.6260124021",
                "miles_per_hour": "19090.4663964284"
            },
            "miss_distance": {
                "astronomical": "0.0194213003",
                "lunar": "7.5548858167",
                "kilometers": "2905385.157510361",
                "miles": "1805322.6229545418"
            },
            "orbiting_body": "Earth"
        },
        {
            "close_approach_date": "2061-02-06",
            "close_approach_date_full": "2061-Feb-06 19:31",
            "epoch_date_close_approach": 2874943860000,
            "relative_velocity": {
                "kilometers_per_second": "19.5333536129",
                "kilometers_per_hour": "70320.0730065977",
                "miles_per_hour": "43694.158696794"
            },
            "miss_distance": {
                "astronomical": "0.3730837716",
                "lunar": "145.1295871524",
                "kilometers": "55812537.562926492",
                "miles": "34680302.6945979096"
            },
            "orbiting_body": "Earth"
        }
    ],
    "orbital_data": {
        "orbit_id": "2",
        "orbit_determination_date": "2020-03-07 05:04:36",
        "first_observation_date": "2020-03-05",
        "last_observation_date": "2020-03-07",
        "data_arc_in_days": 2,
        "observations_used": 23,
        "orbit_uncertainty": "8",
        "minimum_orbit_intersection": ".003652",
        "jupiter_tisserand_invariant": "3.604",
        "epoch_osculation": "2458914.5",
        "eccentricity": ".524254109332258",
        "semi_major_axis": "2.053397611635762",
        "inclination": "1.112451965840929",
        "ascending_node_longitude": "27.19485221518896",
        "orbital_period": "1074.751365790326",
        "perihelion_distance": ".9768954756426699",
        "perihelion_argument": "167.0655448989042",
        "aphelion_distance": "3.129899747628855",
        "perihelion_time": "2458938.107854205659",
        "mean_anomaly": "352.092284983711",
        "mean_motion": ".3349611933130892",
        "equinox": "J2000",
        "orbit_class": {
            "orbit_class_type": "APO",
            "orbit_class_description": "Near-Earth asteroid orbits which cross the Earth’s orbit similar to that of 1862 Apollo",
            "orbit_class_range": "a (semi-major axis) > 1.0 AU; q (perihelion) < 1.017 AU"
        }
    },
    "is_sentry_object": false
}